*******************************************************************************
Ephemeris / WWW_USER Tue Mar 27 20:23:17 2018 Pasadena, USA      / Horizons    
*******************************************************************************
Target body name: Rhea (605)                      {source: sat389}
Center body name: Solar System Barycenter (0)     {source: DE431mx}
Center-site name: BODY CENTER
*******************************************************************************
Start time      : A.D. 2000-Jan-01 00:00:00.0000 TDB
Stop  time      : A.D. 2010-Jan-01 00:00:00.0000 TDB
Step-size       : 7200 minutes
*******************************************************************************
Center geodetic : 0.00000000,0.00000000,0.0000000 {E-lon(deg),Lat(deg),Alt(km)}
Center cylindric: 0.00000000,0.00000000,0.0000000 {E-lon(deg),Dxy(km),Dz(km)}
Center radii    : (undefined)                                                  
Output units    : AU-D                                                         
Output type     : GEOMETRIC cartesian states
Output format   : 2 (position and velocity)
Reference frame : ICRF/J2000.0                                                 
Coordinate systm: Ecliptic and Mean Equinox of Reference Epoch                 
*******************************************************************************
JDTDB
   X     Y     Z
   VX    VY    VZ
*******************************************************************************
$$SOE
2453014.500000000 = A.D. 2004-Jan-10 00:00:00.0000 TDB 
  -1.571458567119018E+00  8.888865805993715E+00 -9.065958446764071E-02
  -1.132939210158968E-03  1.192455515153944E-04 -8.104715334782837E-04
2453019.500000000 = A.D. 2004-Jan-15 00:00:00.0000 TDB 
  -1.598554384141870E+00  8.885051974063307E+00 -9.021419798144109E-02
  -3.049725576649379E-03  2.481808852940154E-03 -1.854508036875089E-03
2453024.500000000 = A.D. 2004-Jan-20 00:00:00.0000 TDB 
  -1.626892904140994E+00  8.881958883600577E+00 -9.006056384949163E-02
  -6.157982891596699E-03  3.330422476273719E-03 -1.984753272202039E-03
2453029.500000000 = A.D. 2004-Jan-25 00:00:00.0000 TDB 
  -1.656733353587930E+00  8.878741401879585E+00 -8.973051492083538E-02
  -9.103195484869190E-03  2.289303481755470E-03 -1.145242411593855E-03
2453034.500000000 = A.D. 2004-Jan-30 00:00:00.0000 TDB 
  -1.687676584388978E+00  8.874558897468695E+00 -8.882648708284765E-02
  -1.060286949186596E-02 -1.955971710192859E-04  2.984379227646565E-04
2453039.500000000 = A.D. 2004-Feb-04 00:00:00.0000 TDB 
  -1.718830714796687E+00  8.868954853920590E+00 -8.720242387214068E-02
  -1.000712316037662E-02 -3.048269762098536E-03  1.717278295793398E-03
2453044.500000000 = A.D. 2004-Feb-09 00:00:00.0000 TDB 
  -1.749208224093365E+00  8.862057322039679E+00 -8.502729115860999E-02
  -7.583483284454992E-03 -5.042412120746916E-03  2.498780238096563E-03
2453049.500000000 = A.D. 2004-Feb-14 00:00:00.0000 TDB 
  -1.778163135564381E+00  8.854511213109969E+00 -8.270460556670689E-02
  -4.376609386239478E-03 -5.327110729238502E-03  2.306855110526409E-03
2453054.500000000 = A.D. 2004-Feb-19 00:00:00.0000 TDB 
  -1.805643290472435E+00  8.847194973523825E+00 -8.069829809261718E-02
  -1.766828723983927E-03 -3.787078139808477E-03  1.224210402218669E-03
2453059.500000000 = A.D. 2004-Feb-24 00:00:00.0000 TDB 
  -1.832229343650571E+00  8.840862904757284E+00 -7.934190889949473E-02
  -8.873366771583230E-04 -1.088608980273072E-03 -2.840745348064917E-04
2453064.500000000 = A.D. 2004-Feb-29 00:00:00.0000 TDB 
  -1.858889764546601E+00  8.835801952044671E+00 -7.868496710834520E-02
  -2.124540659157746E-03  1.589105007364568E-03 -1.562500317858924E-03
2453069.500000000 = A.D. 2004-Mar-05 00:00:00.0000 TDB 
  -1.886552716996816E+00  8.831701521049903E+00 -7.846927562188856E-02
  -4.940424147738698E-03  3.073176150813676E-03 -2.054534180319015E-03
2453074.500000000 = A.D. 2004-Mar-10 00:00:00.0000 TDB 
  -1.915693898227700E+00  8.827801568753522E+00 -7.824880251300291E-02
  -8.109337683107419E-03  2.707695146411032E-03 -1.544663315512634E-03
2453079.500000000 = A.D. 2004-Mar-15 00:00:00.0000 TDB 
  -1.946152060127410E+00  8.823216956550571E+00 -7.757820590151522E-02
  -1.025119465703021E-02  6.472290259349838E-04 -2.564140926001101E-04
2453084.500000000 = A.D. 2004-Mar-20 00:00:00.0000 TDB 
  -1.977176693260907E+00  8.817314820191372E+00 -7.620485878534150E-02
  -1.043448267133048E-02 -2.217937946224755E-03  1.249191696003426E-03
2453089.500000000 = A.D. 2004-Mar-25 00:00:00.0000 TDB 
  -2.007763716505515E+00  8.810002335884359E+00 -7.418410686259891E-02
  -8.585912796109473E-03 -4.651652336862293E-03  2.319440015681364E-03
2453094.500000000 = A.D. 2004-Mar-30 00:00:00.0000 TDB 
  -2.037096588647534E+00  8.801763909477650E+00 -7.185318133473170E-02
  -5.507901118169859E-03 -5.613109935847871E-03  2.494165414638088E-03
2453099.500000000 = A.D. 2004-Apr-04 00:00:00.0000 TDB 
  -2.064896600433618E+00  8.793433041495529E+00 -6.967588829398923E-02
  -2.525617285223632E-03 -4.695319502877658E-03  1.698104196130346E-03
2453104.500000000 = A.D. 2004-Apr-09 00:00:00.0000 TDB 
  -2.091525640775370E+00  8.785851450192510E+00 -6.805394935721662E-02
  -9.251250768043312E-04 -2.298776136655650E-03  2.733511862119912E-04
2453109.500000000 = A.D. 2004-Apr-14 00:00:00.0000 TDB 
  -2.117854182965441E+00  8.779504821402213E+00 -6.715063626157587E-02
  -1.408131814200336E-03  5.354227459234421E-04 -1.164242872341652E-03
2453114.500000000 = A.D. 2004-Apr-19 00:00:00.0000 TDB 
  -2.144879059029021E+00  8.774299799186759E+00 -6.681411401847032E-02
  -3.766538166402315E-03  2.564531667001350E-03 -1.987750952094974E-03
2453119.500000000 = A.D. 2004-Apr-24 00:00:00.0000 TDB 
  -2.173278934583132E+00  8.769602682268372E+00 -6.664344067929640E-02
  -6.971782610942152E-03  2.897209050095745E-03 -1.838464197940255E-03
2453124.500000000 = A.D. 2004-Apr-29 00:00:00.0000 TDB 
  -2.203125964496830E+00  8.764533939844224E+00 -6.617213484008116E-02
  -9.628009790118812E-03  1.382015407696211E-03 -7.817903999555804E-04
2453129.500000000 = A.D. 2004-May-04 00:00:00.0000 TDB 
  -2.233861505146394E+00  8.758327191209043E+00 -6.505810634698185E-02
  -1.058055014370462E-02 -1.327419380189302E-03  7.217603044782819E-04
2453134.500000000 = A.D. 2004-May-09 00:00:00.0000 TDB 
  -2.264523393396916E+00  8.750673829580695E+00 -6.323985154295575E-02
  -9.416999624040532E-03 -4.059784983110729E-03  2.018426399762835E-03
2453139.500000000 = A.D. 2004-May-14 00:00:00.0000 TDB 
  -2.294175268382095E+00  8.741860328244668E+00 -6.096357072826911E-02
  -6.648036949613396E-03 -5.642274257509071E-03  2.549169757982133E-03
2453144.500000000 = A.D. 2004-May-19 00:00:00.0000 TDB 
  -2.322318293861133E+00  8.732635367514504E+00 -5.867142598328128E-02
  -3.466650003048992E-03 -5.402071892773244E-03  2.086362161975118E-03
2453149.500000000 = A.D. 2004-May-24 00:00:00.0000 TDB 
  -2.349086182138784E+00  8.723876471363223E+00 -5.680735134801364E-02
  -1.243007989553085E-03 -3.447526746983991E-03  8.282724521443501E-04
2453154.500000000 = A.D. 2004-May-29 00:00:00.0000 TDB 
  -2.375196883482011E+00  8.716237334974194E+00 -5.563799094688900E-02
  -9.424348699592957E-04 -6.270198563154770E-04 -6.826683597919753E-04
2453159.500000000 = A.D. 2004-Jun-03 00:00:00.0000 TDB 
  -2.401652744529239E+00  8.709845144545190E+00 -5.512596075595826E-02
  -2.702449132466181E-03  1.827039099443171E-03 -1.789358929717288E-03
2453164.500000000 = A.D. 2004-Jun-08 00:00:00.0000 TDB 
  -2.429297015364344E+00  8.704241346002480E+00 -5.494483463341785E-02
  -5.754978375658833E-03  2.837002810397218E-03 -2.009104238947128E-03
2453169.500000000 = A.D. 2004-Jun-13 00:00:00.0000 TDB 
  -2.458435737656770E+00  8.698588890546205E+00 -5.462623461227099E-02
  -8.768818032116424E-03  1.955163636544627E-03 -1.246037955038958E-03
2453174.500000000 = A.D. 2004-Jun-18 00:00:00.0000 TDB 
  -2.488726457094784E+00  8.692040916948804E+00 -5.376378289896360E-02
  -1.043288217431222E-02 -4.383134095853616E-04  1.659302939549261E-04
2453179.500000000 = A.D. 2004-Jun-23 00:00:00.0000 TDB 
  -2.519312054610991E+00  8.684092228576539E+00 -5.218260585108938E-02
  -1.002636863244675E-02 -3.310236035960365E-03  1.613374278968732E-03
2453184.500000000 = A.D. 2004-Jun-28 00:00:00.0000 TDB 
  -2.549194711204625E+00  8.674813156511126E+00 -5.002247315009573E-02
  -7.727093566408651E-03 -5.422634053301266E-03  2.469005144566119E-03
2453189.500000000 = A.D. 2004-Jul-03 00:00:00.0000 TDB 
  -2.577674883799354E+00  8.664816749700762E+00 -4.767537593117058E-02
  -4.532778972651783E-03 -5.874611388303520E-03  2.366122695059221E-03
2453194.500000000 = A.D. 2004-Jul-08 00:00:00.0000 TDB 
  -2.604655899199433E+00  8.654979104126548E+00 -4.560820654826743E-02
  -1.817636595748223E-03 -4.477283161804589E-03  1.348320663783590E-03
2453199.500000000 = A.D. 2004-Jul-13 00:00:00.0000 TDB 
  -2.630662397050946E+00  8.646071548433188E+00 -4.416890321705810E-02
  -7.531186147326198E-04 -1.838168597769496E-03 -1.464183220526452E-04
2453204.500000000 = A.D. 2004-Jul-18 00:00:00.0000 TDB 
  -2.656641422703490E+00  8.638435929209406E+00 -4.343770226568026E-02
  -1.809393511526192E-03  8.946449424590751E-04 -1.470778861463396E-03
2453209.500000000 = A.D. 2004-Jul-23 00:00:00.0000 TDB 
  -2.683546312595638E+00  8.631817120104630E+00 -4.318299039680174E-02
  -4.528478291470005E-03  2.520445470893342E-03 -2.045970730014858E-03
2453214.500000000 = A.D. 2004-Jul-28 00:00:00.0000 TDB 
  -2.711910220139103E+00  8.625474972508600E+00 -4.296361903684650E-02
  -7.722258944867004E-03  2.325264832607866E-03 -1.622500974685167E-03
2453219.500000000 = A.D. 2004-Aug-02 00:00:00.0000 TDB 
  -2.741616939041248E+00  8.618522710665706E+00 -4.232908046934804E-02
  -9.999191216588668E-03  3.869694626281463E-04 -3.848452384880143E-04
